[{"OBJECT_NAME":"GPS BIIR-2  (PRN 13)","OBJECT_ID":"1997-035A","EPOCH":"2026-04-27T08:18:51.112224","MEAN_MOTION":2.00563834,"ECCENTRICITY":0.0099973,"INCLINATION":55.9682,"RA_OF_ASC_NODE":100.5615,"ARG_OF_PERICENTER":56.2118,"MEAN_ANOMALY":304.7322,"EPHEMERIS_TYPE":0,"CLASSIFICATION_TYPE":"U","NORAD_CAT_ID":24876,"ELEMENT_SET_NO":999,"REV_AT_EPOCH":21093,"BSTAR":0,"MEAN_MOTION_DOT":4.8e-7,"MEAN_MOTION_DDOT":0},{"OBJECT_NAME":"GPS BIIR-5  (PRN 22)","OBJECT_ID":"2000-040A","EPOCH":"2026-04-27T10:40:02.043840","MEAN_MOTION":2.00557238,"ECCENTRICITY":0.0121558,"INCLINATION":54.8614,"RA_OF_ASC_NODE":217.1773,"ARG_OF_PERICENTER":302.3581,"MEAN_ANOMALY":63.6187,"EPHEMERIS_TYPE":0,"CLASSIFICATION_TYPE":"U","NORAD_CAT_ID":26407,"ELEMENT_SET_NO":999,"REV_AT_EPOCH":18893,"BSTAR":0,"MEAN_MOTION_DOT":-4.4e-7,"MEAN_MOTION_DDOT":0},{"OBJECT_NAME":"GPS BIIR-8  (PRN 16)","OBJECT_ID":"2003-005A","EPOCH":"2026-04-27T06:20:28.817088","MEAN_MOTION":2.00563298,"ECCENTRICITY":0.0148189,"INCLINATION":54.8924,"RA_OF_ASC_NODE":216.9917,"ARG_OF_PERICENTER":52.9628,"MEAN_ANOMALY":318.0481,"EPHEMERIS_TYPE":0,"CLASSIFICATION_TYPE":"U","NORAD_CAT_ID":27663,"ELEMENT_SET_NO":999,"REV_AT_EPOCH":17029,"BSTAR":0,"MEAN_MOTION_DOT":-4.5e-7,"MEAN_MOTION_DDOT":0},{"OBJECT_NAME":"GPS BIIR-11 (PRN 19)","OBJECT_ID":"2004-009A","EPOCH":"2026-04-26T12:55:48.508896","MEAN_MOTION":2.00556343,"ECCENTRICITY":0.01136838,"INCLINATION":54.8736,"RA_OF_ASC_NODE":277.7725,"ARG_OF_PERICENTER":170.8393,"MEAN_ANOMALY":190.7377,"EPHEMERIS_TYPE":0,"CLASSIFICATION_TYPE":"U","NORAD_CAT_ID":28190,"ELEMENT_SET_NO":999,"REV_AT_EPOCH":16191,"BSTAR":0,"MEAN_MOTION_DOT":-4.9e-7,"MEAN_MOTION_DDOT":0},{"OBJECT_NAME":"GPS BIIR-13 (PRN 02)","OBJECT_ID":"2004-045A","EPOCH":"2026-04-27T04:47:06.758592","MEAN_MOTION":2.00553547,"ECCENTRICITY":0.01700763,"INCLINATION":55.1651,"RA_OF_ASC_NODE":326.9497,"ARG_OF_PERICENTER":315.0111,"MEAN_ANOMALY":228.8065,"EPHEMERIS_TYPE":0,"CLASSIFICATION_TYPE":"U","NORAD_CAT_ID":28474,"ELEMENT_SET_NO":999,"REV_AT_EPOCH":15740,"BSTAR":0,"MEAN_MOTION_DOT":-7.6e-7,"MEAN_MOTION_DDOT":0},{"OBJECT_NAME":"GPS BIIRM-1 (PRN 17)","OBJECT_ID":"2005-038A","EPOCH":"2026-04-27T11:47:24.957312","MEAN_MOTION":2.00569188,"ECCENTRICITY":0.012778,"INCLINATION":54.9208,"RA_OF_ASC_NODE":275.2219,"ARG_OF_PERICENTER":295.8558,"MEAN_ANOMALY":59.9369,"EPHEMERIS_TYPE":0,"CLASSIFICATION_TYPE":"U","NORAD_CAT_ID":28874,"ELEMENT_SET_NO":999,"REV_AT_EPOCH":15081,"BSTAR":0,"MEAN_MOTION_DOT":-5.8e-7,"MEAN_MOTION_DDOT":0},{"OBJECT_NAME":"INMARSAT 4-F2 (SOUTHPAN/PRN 122)","OBJECT_ID":"2005-044A","EPOCH":"2026-04-27T05:04:51.521088","MEAN_MOTION":1.00270882,"ECCENTRICITY":0.0002771,"INCLINATION":5.0317,"RA_OF_ASC_NODE":43.7613,"ARG_OF_PERICENTER":350.4086,"MEAN_ANOMALY":40.6976,"EPHEMERIS_TYPE":0,"CLASSIFICATION_TYPE":"U","NORAD_CAT_ID":28899,"ELEMENT_SET_NO":999,"REV_AT_EPOCH":7501,"BSTAR":0,"MEAN_MOTION_DOT":-2.68e-6,"MEAN_MOTION_DDOT":0},{"OBJECT_NAME":"GPS BIIRM-2 (PRN 31)","OBJECT_ID":"2006-042A","EPOCH":"2026-04-27T02:45:33.003648","MEAN_MOTION":2.00572699,"ECCENTRICITY":0.01061388,"INCLINATION":54.7027,"RA_OF_ASC_NODE":153.3668,"ARG_OF_PERICENTER":53.4661,"MEAN_ANOMALY":288.2938,"EPHEMERIS_TYPE":0,"CLASSIFICATION_TYPE":"U","NORAD_CAT_ID":29486,"ELEMENT_SET_NO":999,"REV_AT_EPOCH":14336,"BSTAR":0,"MEAN_MOTION_DOT":6.5e-7,"MEAN_MOTION_DDOT":0},{"OBJECT_NAME":"GPS BIIRM-3 (PRN 12)","OBJECT_ID":"2006-052A","EPOCH":"2026-04-24T13:40:50.622240","MEAN_MOTION":2.00555028,"ECCENTRICITY":0.00864806,"INCLINATION":54.9441,"RA_OF_ASC_NODE":216.131,"ARG_OF_PERICENTER":90.248,"MEAN_ANOMALY":270.7556,"EPHEMERIS_TYPE":0,"CLASSIFICATION_TYPE":"U","NORAD_CAT_ID":29601,"ELEMENT_SET_NO":999,"REV_AT_EPOCH":14233,"BSTAR":0,"MEAN_MOTION_DOT":-3.8e-7,"MEAN_MOTION_DDOT":0},{"OBJECT_NAME":"GPS BIIRM-4 (PRN 15)","OBJECT_ID":"2007-047A","EPOCH":"2026-04-26T20:52:01.035552","MEAN_MOTION":2.00557863,"ECCENTRICITY":0.01647872,"INCLINATION":54.0586,"RA_OF_ASC_NODE":82.1794,"ARG_OF_PERICENTER":86.5004,"MEAN_ANOMALY":275.3611,"EPHEMERIS_TYPE":0,"CLASSIFICATION_TYPE":"U","NORAD_CAT_ID":32260,"ELEMENT_SET_NO":999,"REV_AT_EPOCH":13578,"BSTAR":0,"MEAN_MOTION_DOT":3.0e-8,"MEAN_MOTION_DDOT":0},{"OBJECT_NAME":"COSMOS 2433 (720)","OBJECT_ID":"2007-052A","EPOCH":"2026-04-24T21:20:57.948576","MEAN_MOTION":2.13103913,"ECCENTRICITY":8.775e-5,"INCLINATION":65.6073,"RA_OF_ASC_NODE":317.7278,"ARG_OF_PERICENTER":210.0462,"MEAN_ANOMALY":149.9789,"EPHEMERIS_TYPE":0,"CLASSIFICATION_TYPE":"U","NORAD_CAT_ID":32275,"ELEMENT_SET_NO":999,"REV_AT_EPOCH":14392,"BSTAR":0,"MEAN_MOTION_DOT":-2.5e-7,"MEAN_MOTION_DDOT":0},{"OBJECT_NAME":"COSMOS 2432 (719)","OBJECT_ID":"2007-052B","EPOCH":"2026-04-26T03:19:44.529312","MEAN_MOTION":2.13103016,"ECCENTRICITY":0.00090201,"INCLINATION":65.6218,"RA_OF_ASC_NODE":317.8121,"ARG_OF_PERICENTER":337.4838,"MEAN_ANOMALY":204.913,"EPHEMERIS_TYPE":0,"CLASSIFICATION_TYPE":"U","NORAD_CAT_ID":32276,"ELEMENT_SET_NO":999,"REV_AT_EPOCH":14397,"BSTAR":0,"MEAN_MOTION_DOT":-2.8e-7,"MEAN_MOTION_DDOT":0},{"OBJECT_NAME":"GPS BIIRM-5 (PRN 29)","OBJECT_ID":"2007-062A","EPOCH":"2026-04-26T22:23:29.027040","MEAN_MOTION":2.00556888,"ECCENTRICITY":0.0034581,"INCLINATION":55.0742,"RA_OF_ASC_NODE":276.2115,"ARG_OF_PERICENTER":162.4186,"MEAN_ANOMALY":10.5045,"EPHEMERIS_TYPE":0,"CLASSIFICATION_TYPE":"U","NORAD_CAT_ID":32384,"ELEMENT_SET_NO":999,"REV_AT_EPOCH":13448,"BSTAR":0,"MEAN_MOTION_DOT":-5.2e-7,"MEAN_MOTION_DDOT":0},{"OBJECT_NAME":"COSMOS 2434 (721)","OBJECT_ID":"2007-065A","EPOCH":"2026-04-23T06:16:19.560000","MEAN_MOTION":2.13101316,"ECCENTRICITY":0.0001761,"INCLINATION":64.3156,"RA_OF_ASC_NODE":193.7675,"ARG_OF_PERICENTER":53.0873,"MEAN_ANOMALY":27.9132,"EPHEMERIS_TYPE":0,"CLASSIFICATION_TYPE":"U","NORAD_CAT_ID":32393,"ELEMENT_SET_NO":999,"REV_AT_EPOCH":14260,"BSTAR":0,"MEAN_MOTION_DOT":-6.0e-8,"MEAN_MOTION_DDOT":0},{"OBJECT_NAME":"COSMOS 2436 (723)","OBJECT_ID":"2007-065C","EPOCH":"2026-04-24T20:40:28.937856","MEAN_MOTION":2.13100207,"ECCENTRICITY":0.00171847,"INCLINATION":64.3242,"RA_OF_ASC_NODE":193.7851,"ARG_OF_PERICENTER":359.7473,"MEAN_ANOMALY":1.3358,"EPHEMERIS_TYPE":0,"CLASSIFICATION_TYPE":"U","NORAD_CAT_ID":32395,"ELEMENT_SET_NO":999,"REV_AT_EPOCH":14259,"BSTAR":0,"MEAN_MOTION_DOT":-1.7e-7,"MEAN_MOTION_DDOT":0},{"OBJECT_NAME":"GPS BIIRM-6 (PRN 07)","OBJECT_ID":"2008-012A","EPOCH":"2026-04-27T06:48:11.268864","MEAN_MOTION":2.00571022,"ECCENTRICITY":0.0209749,"INCLINATION":54.4885,"RA_OF_ASC_NODE":151.9586,"ARG_OF_PERICENTER":247.1216,"MEAN_ANOMALY":110.7185,"EPHEMERIS_TYPE":0,"CLASSIFICATION_TYPE":"U","NORAD_CAT_ID":32711,"ELEMENT_SET_NO":999,"REV_AT_EPOCH":13273,"BSTAR":0,"MEAN_MOTION_DOT":6.8e-7,"MEAN_MOTION_DDOT":0},{"OBJECT_NAME":"GPS BIIRM-8 (PRN 05)","OBJECT_ID":"2009-043A","EPOCH":"2026-04-26T18:43:36.967008","MEAN_MOTION":2.00557087,"ECCENTRICITY":0.00529813,"INCLINATION":56.1799,"RA_OF_ASC_NODE":29.4711,"ARG_OF_PERICENTER":81.373,"MEAN_ANOMALY":288.581,"EPHEMERIS_TYPE":0,"CLASSIFICATION_TYPE":"U","NORAD_CAT_ID":35752,"ELEMENT_SET_NO":999,"REV_AT_EPOCH":12233,"BSTAR":0,"MEAN_MOTION_DOT":-1.06e-6,"MEAN_MOTION_DDOT":0}]
